H1 CPF 01  gfz 2022 10 29 00  8021 tandemx   
H2 1003001  6202 36605    2022 10 29 00 59 42 2022 11 03 00 00 42   120 1 1  0 0 0
H9
10 0 59881  20142.000000  0    4231493.946   1177268.983   5296711.711
10 0 59881  20262.000000  0    4916049.120   1129963.614   4681816.440
10 0 59881  20382.000000  0    5513595.804   1051691.687   3984521.842
10 0 59881  20502.000000  0    6013146.982    945434.561   3217079.880
10 0 59881  20622.000000  0    6405491.705    814842.233   2392989.804
10 0 59881  20742.000000  0    6683373.901    664136.714   1526759.776
10 0 59881  20862.000000  0    6841635.723    498002.649    633646.170
10 0 59881  20982.000000  0    6877318.282    321466.510   -270622.106
10 0 59881  21102.000000  0    6789719.322    139767.969  -1170129.920
10 0 59881  21222.000000  0    6580404.036    -41772.961  -2049065.096
10 0 59881  21342.000000  0    6253170.179   -217890.076  -2892003.610
10 0 59881  21462.000000  0    5813969.748   -383502.923  -3684185.013
10 0 59881  21582.000000  0    5270788.696   -533842.811  -4411772.935
10 0 59881  21702.000000  0    4633488.124   -664569.387  -5062094.392
10 0 59881  21822.000000  0    3913613.615   -771875.405  -5623853.879
10 0 59881  21942.000000  0    3124176.872   -852578.851  -6087321.173
10 0 59881  22062.000000  0    2279413.372   -904199.654  -6444489.324
10 0 59881  22182.000000  0    1394522.686   -925018.577  -6689201.011
10 0 59881  22302.000000  0     485396.575   -914119.786  -6817244.274
10 0 59881  22422.000000  0    -431662.601   -871414.929  -6826417.486
10 0 59881  22542.000000  0   -1340227.475   -797648.709  -6716562.435
10 0 59881  22662.000000  0   -2224033.208   -694386.157  -6489567.256
10 0 59881  22782.000000  0   -3067262.145   -563981.430  -6149336.223
10 0 59881  22902.000000  0   -3854820.390   -409529.097  -5701730.125
10 0 59881  23022.000000  0   -4572607.188   -234798.089  -5154476.799
10 0 59881  23142.000000  0   -5207769.608    -44149.311  -4517048.469
10 0 59881  23262.000000  0   -5748938.778    157561.198  -3800510.086
10 0 59881  23382.000000  0   -6186444.248    365093.309  -3017337.013
10 0 59881  23502.000000  0   -6512499.182    572944.802  -2181204.359
10 0 59881  23622.000000  0   -6721352.105    775482.794  -1306751.075
10 0 59881  23742.000000  0   -6809402.131    967080.060   -409322.440
10 0 59881  23862.000000  0   -6775270.479   1142253.667    495306.074
10 0 59881  23982.000000  0   -6619827.006   1295802.207   1391212.474
10 0 59881  24102.000000  0   -6346173.681   1422938.565   2262616.801
10 0 59881  24222.000000  0   -5959582.390   1519414.148   3094168.634
10 0 59881  24342.000000  0   -5467388.157   1581631.080   3871225.953
10 0 59881  24462.000000  0   -4878841.251   1606739.707   4580118.094
10 0 59881  24582.000000  0   -4204923.680   1592719.283   5208387.832
10 0 59881  24702.000000  0   -3458135.286   1538440.052   5745009.015
10 0 59881  24822.000000  0   -2652254.095   1443705.506   6180577.536
10 0 59881  24942.000000  0   -1802074.273   1309274.402   6507472.317
10 0 59881  25062.000000  0    -923128.247   1136861.075   6719981.779
10 0 59881  25182.000000  0     -31400.747    929115.045   6814396.554
10 0 59881  25302.000000  0     856961.431    689580.177   6789069.711
10 0 59881  25422.000000  0    1725940.617    422634.157   6644443.563
10 0 59881  25542.000000  0    2559935.788    133409.193   6383042.668
10 0 59881  25662.000000  0    3344042.736   -172305.387   6009433.822
10 0 59881  25782.000000  0    4064322.928   -488177.109   5530151.001
10 0 59881  25902.000000  0    4708055.142   -807458.881   4953586.734
10 0 59881  26022.000000  0    5263966.655  -1123129.930   4289851.350
10 0 59881  26142.000000  0    5722438.924  -1428046.318   3550600.075
10 0 59881  26262.000000  0    6075683.754  -1715098.375   2748830.659
10 0 59881  26382.000000  0    6317884.822  -1977370.854   1898653.961
10 0 59881  26502.000000  0    6445301.008  -2208302.311   1015042.227
10 0 59881  26622.000000  0    6456328.986  -2401839.815    113559.097
10 0 59881  26742.000000  0    6351522.355  -2552584.662   -789923.191
10 0 59881  26862.000000  0    6133567.205  -2655925.024  -1679512.593
10 0 59881  26982.000000  0    5807213.592  -2708152.956  -2539585.370
10 0 59881  27102.000000  0    5379166.552  -2706561.535  -3355066.368
10 0 59881  27222.000000  0    4857940.115  -2649520.852  -4111695.846
10 0 59881  27342.000000  0    4253678.971  -2536531.924  -4796278.439
10 0 59881  27462.000000  0    3577950.635  -2368256.700  -5396909.642
10 0 59881  27582.000000  0    2843514.873  -2146523.689  -5903173.941
10 0 59881  27702.000000  0    2064078.696  -1874310.583  -6306314.512
10 0 59881  27822.000000  0    1254038.759  -1555704.029  -6599375.265
10 0 59881  27942.000000  0     428215.218  -1195836.594  -6777309.762
10 0 59881  28062.000000  0    -398415.606   -800804.161  -6837058.400
10 0 59881  28182.000000  0   -1210986.747   -377564.176  -6777594.686
10 0 59881  28302.000000  0   -1995001.795     66184.060  -6599941.050
10 0 59881  28422.000000  0   -2736587.469    522135.908  -6307152.172
10 0 59881  28542.000000  0   -3422733.523    981532.033  -5904268.252
10 0 59881  28662.000000  0   -4041519.010   1435322.000  -5398238.405
10 0 59881  28782.000000  0   -4582321.736   1874338.050  -4797812.397
10 0 59881  28902.000000  0   -5036006.252   2289478.177  -4113401.088
10 0 59881  29022.000000  0   -5395085.760   2671892.782  -3356905.354
10 0 59881  29142.000000  0   -5653855.184   3013171.251  -2541517.643
10 0 59881  29262.000000  0   -5808492.880   3305525.576  -1681496.977
10 0 59881  29382.000000  0   -5857126.360   3541966.264   -791920.096
10 0 59881  29502.000000  0   -5799859.338   3716465.267    111586.112
10 0 59881  29622.000000  0   -5638760.282   3824102.019   1013125.939
10 0 59881  29742.000000  0   -5377809.282   3861187.416   1896824.179
10 0 59881  29862.000000  0   -5022805.502   3825363.117   2747114.444
10 0 59881  29982.000000  0   -4581239.723   3715673.946   3549021.101
10 0 59881  30102.000000  0   -4062133.246   3532611.083   4288430.154
10 0 59881  30222.000000  0   -3475848.182   3278124.499   4952340.796
10 0 59881  30342.000000  0   -2833874.884   2955606.803   5529094.972
10 0 59881  30462.000000  0   -2148599.826   2569847.165   6008580.034
10 0 59881  30582.000000  0   -1433061.182   2126957.148   6382401.842
10 0 59881  30702.000000  0    -700696.117   1634270.091   6644024.772
10 0 59881  30822.000000  0      34911.982   1100217.179   6788878.887
10 0 59881  30942.000000  0     760285.178    534181.639   6814435.250
10 0 59881  31062.000000  0    1462297.118    -53666.033   6720246.870
10 0 59881  31182.000000  0    2128409.458   -652549.986   6507956.562
10 0 59881  31302.000000  0    2746895.399  -1251286.132   6181270.669
10 0 59881  31422.000000  0    3307047.633  -1838490.088   5745899.251
10 0 59881  31542.000000  0    3799367.265  -2402794.165   5209461.749
10 0 59881  31662.000000  0    4215729.176  -2933068.079   4581359.216
10 0 59881  31782.000000  0    4549521.594  -3418641.076   3872615.268
10 0 59881  31902.000000  0    4795757.143  -3849520.312   3095686.055
10 0 59881  32022.000000  0    4951152.896  -4216599.999   2264241.552
10 0 59881  32142.000000  0    5014175.454  -4511855.809   1392921.686
10 0 59881  32262.000000  0    4985050.397  -4728520.546    497073.506
10 0 59881  32382.000000  0    4865736.328  -4861236.790   -407526.340
10 0 59881  32502.000000  0    4659863.673  -4906181.543  -1304958.044
10 0 59881  32622.000000  0    4372639.684  -4861159.617  -2179447.932
10 0 59881  32742.000000  0    4010721.976  -4725663.895  -3015652.945
10 0 59881  32862.000000  0    3582064.356  -4500901.053  -3798934.557
10 0 59881  32982.000000  0    3095739.887  -4189783.020  -4515616.359
10 0 59881  33102.000000  0    2561745.197  -3796884.099  -5153220.818
10 0 59881  33222.000000  0    1990790.944  -3328365.971  -5700679.095
10 0 59881  33342.000000  0    1394085.933  -2791874.777  -6148512.678
10 0 59881  33462.000000  0     783117.304  -2196412.110  -6488987.538
10 0 59881  33582.000000  0     169430.465  -1552180.256  -6716237.424
10 0 59881  33702.000000  0    -435585.614   -870406.049  -6826354.149
10 0 59881  33822.000000  0   -1020904.188   -163147.269  -6817446.585
10 0 59881  33942.000000  0   -1576056.773    556915.817  -6689669.095
10 0 59881  34062.000000  0   -2091316.055   1276701.750  -6445218.712
10 0 59881  34182.000000  0   -2557862.272   1982959.579  -6088301.473
10 0 59881  34302.000000  0   -2967932.585   2662507.027  -5625068.512
10 0 59881  34422.000000  0   -3314951.079   3302473.864  -5063521.421
10 0 59881  34542.000000  0   -3593637.913   3890545.756  -4413385.971
10 0 59881  34662.000000  0   -3800094.274   4415203.878  -3685953.598
10 0 59881  34782.000000  0   -3931859.606   4865954.512  -2893893.345
10 0 59881  34902.000000  0   -3987941.538   5233544.394  -2051038.181
10 0 59881  35022.000000  0   -3968818.387   5510157.393  -1172146.893
10 0 59881  35142.000000  0   -3876411.807   5689587.937   -272644.189
10 0 59881  35262.000000  0   -3714028.929   5767382.838    631655.548
10 0 59881  35382.000000  0   -3486277.236   5740949.854   1524833.654
10 0 59881  35502.000000  0   -3198951.551   5609630.012   2391157.860
10 0 59881  35622.000000  0   -2858895.685   5374728.435   3215369.611
10 0 59881  35742.000000  0   -2473844.419   5039504.672   3982959.169
10 0 59881  35862.000000  0   -2052250.014   4609124.995   4680425.241
10 0 59881  35982.000000  0   -1603097.617   4090576.931   5295514.219
10 0 59881  36102.000000  0   -1135713.289   3492548.196   5817434.986
10 0 59881  36222.000000  0    -659569.902   2825272.860   6237044.030
10 0 59881  36342.000000  0    -184095.559   2100349.236   6546999.569
10 0 59881  36462.000000  0     281511.932   1330534.403   6741883.968
10 0 59881  36582.000000  0     728462.400    529516.623   6818293.300
99
